NORAD_CAT_ID,OBJECT_NAME,OBJECT_TYPE,EPOCH,MEAN_MOTION,ECCENTRICITY,INCLINATION,RA_OF_ASC_NODE,ARG_OF_PERICENTER,MEAN_ANOMALY,BSTAR,MEAN_MOTION_DOT,MEAN_MOTION_DDOT,TLE_LINE0,TLE_LINE1,TLE_LINE2,SEMIMAJOR_AXIS,PERIOD,APOGEE,PERIGEE,DECAYED
52843.0,STARLINK-4188,PAYLOAD,2022-07-15 22:00:00,15.73251044,0.0002327,53.2161,264.3669,19.3398,201.9639,-0.0008008,-0.00111788,0.0,0 STARLINK-4188,1 52843U 22062P   22196.91667824 -.00111788  00000-0 -80080-3 0  9994,2 52843  53.2161 264.3669 0002327  19.3398 201.9639 15.73251044  4966,6727.75,91.53,351.18,348.0490000000001,0.0
52843.0,STARLINK-4188,PAYLOAD,2022-07-16 06:00:00,15.73274355,0.0002156,53.2174,262.7169,13.3535,296.918,-0.0071223,-0.00902112,0.0,0 STARLINK-4188,1 52843U 22062P   22197.25001157 -.00902112  00000-0 -71223-2 0  9990,2 52843  53.2174 262.7169 0002156  13.3535 296.9180 15.73274355  5027,6727.683000000001,91.529,350.999,348.098,0.0
52843.0,STARLINK-4188,PAYLOAD,2022-07-16 14:00:01,15.72618582,0.0002288,53.2177,261.0727,16.4639,22.4326,-0.0090457,-0.01108346,0.0,0 STARLINK-4188,1 52843U 22062P   22197.58334491 -.01108346  00000-0 -90457-2 0  9994,2 52843  53.2177 261.0727 0002288  16.4639  22.4326 15.72618582  5079,6729.553000000001,91.567,352.958,349.879,0.0
52843.0,STARLINK-4188,PAYLOAD,2022-07-16 22:00:00,15.71815127,0.0002539,53.2177,259.4272,15.6147,111.0194,-0.0093486,-0.01106976,0.0,0 STARLINK-4188,1 52843U 22062P   22197.91667824 -.01106976  00000-0 -93486-2 0  9992,2 52843  53.2177 259.4272 0002539  15.6147 111.0194 15.71815127  1302,6731.846,91.614,355.421,352.00199999999984,0.0
52843.0,STARLINK-4188,PAYLOAD,2022-07-17 06:00:00,15.71012824,0.0002436,53.2178,257.7855,19.0869,194.3179,-0.0096758,-0.01107184,0.0,0 STARLINK-4188,1 52843U 22062P   22198.25001157 -.01107184  00000-0 -96758-2 0  9998,2 52843  53.2178 257.7855 0002436  19.0869 194.3179 15.71012824  5175,6734.138000000001,91.661,357.644,354.36300000000006,0.0
52843.0,STARLINK-4188,PAYLOAD,2022-07-17 14:00:01,15.70210214,0.0002578,53.2175,256.1475,13.5416,285.6686,-0.010014,-0.01107696,0.0,0 STARLINK-4188,1 52843U 22062P   22198.58334491 -.01107696  00000-0 -10014-1 0  9992,2 52843  53.2175 256.1475 0002578  13.5416 285.6686 15.70210214  1307,6736.433000000001,91.707,360.034,356.561,0.0
52843.0,STARLINK-4188,PAYLOAD,2022-07-17 22:00:00,15.69407024,0.0002558,53.2175,254.5077,11.1295,12.924,-0.010352,-0.01107197,0.0,0 STARLINK-4188,1 52843U 22062P   22198.91667824 -.01107197  00000-0 -10352-1 0  9999,2 52843  53.2175 254.5077 0002558  11.1295  12.9240 15.69407024  5287,6738.731,91.754,362.32,358.872,0.0
52843.0,STARLINK-4188,PAYLOAD,2022-07-18 14:00:01,15.67799194,0.0001957,53.2176,251.2396,318.9637,231.8786,-0.011033,-0.01103951,0.0,0 STARLINK-4188,1 52843U 22062P   22199.58334491 -.01103951  00000-0 -11033-1 0  9995,2 52843  53.2176 251.2396 0001957 318.9637 231.8786 15.67799194  1302,6743.337,91.848,366.522,363.883,0.0
52843.0,STARLINK-4188,PAYLOAD,2022-07-18 22:00:00,15.66996229,0.0001676999999999,53.2177,249.6056,15.5397,257.2507,-0.011387,-0.01120284,0.0,0 STARLINK-4188,1 52843U 22062P   22199.91667824 -.01120284  00000-0 -11387-1 0  9991,2 52843  53.2177 249.6056 0001677  15.5397 257.2507 15.66996229  5448,6745.641,91.896,368.637,366.374,0.0
52843.0,STARLINK-4188,PAYLOAD,2022-07-19 14:00:01,15.65389611,0.0001134,53.2174,246.3493,62.8726,10.9169,-0.012124,-0.01117584,0.0,0 STARLINK-4188,1 52843U 22062P   22200.58334491 -.01117584  00000-0 -12124-1 0  9997,2 52843  53.2174 246.3493 0001134  62.8726  10.9169 15.65389611  5542,6750.255,91.99,372.886,371.355,0.0
52843.0,STARLINK-4188,PAYLOAD,2022-07-19 22:00:00,15.64587777,0.0001244,53.2175,244.7213,64.8439,87.9993,-0.01254,-0.01119184,0.0,0 STARLINK-4188,1 52843U 22062P   22200.91667824 -.01119184  00000-0 -12540-1 0  9993,2 52843  53.2175 244.7213 0001244  64.8439  87.9993 15.64587777  1301,6752.562,92.037,375.267,373.587,0.0
52843.0,STARLINK-4188,PAYLOAD,2022-07-20 04:00:00,15.63985947,0.0001284,53.2176,243.5028,61.1778,60.3218,-0.0128479999999999,-0.01119442,0.0,0 STARLINK-4188,1 52843U 22062P   22201.16667824 -.01119442  00000-0 -12848-1 0  9999,2 52843  53.2176 243.5028 0001284  61.1778  60.3218 15.63985947  5638,6754.294,92.072,377.026,375.291,0.0
52843.0,STARLINK-4188,PAYLOAD,2022-07-20 14:00:01,15.62981578,0.0001035,53.2174,241.4767,91.9719,216.0812,-0.013343,-0.0111731,0.0,0 STARLINK-4188,1 52843U 22062P   22201.58334491 -.01117310  00000-0 -13343-1 0  9999,2 52843  53.2174 241.4767 0001035  91.9719 216.0812 15.62981578  1308,6757.187,92.132,379.751,378.353,0.0
52843.0,STARLINK-4188,PAYLOAD,2022-07-20 22:00:01,15.62179075,0.0001024,53.2175,239.8543,66.8404,317.4377,-0.0137939999999999,-0.01118992,0.0,0 STARLINK-4188,1 52843U 22062P   22201.91668981 -.01118992  00000-0 -13794-1 0  9997,2 52843  53.2175 239.8543 0001024  66.8404 317.4377 15.62179075  1305,6759.501,92.179,382.0580000000001,380.674,0.0
52843.0,STARLINK-4188,PAYLOAD,2022-07-21 14:00:01,15.60571771,0.0001220999999999,53.2174,236.6215,77.8707,95.8287,-0.0146259999999999,-0.0111494,0.0,0 STARLINK-4188,1 52843U 22062P   22202.58335648 -.01114940  00000-0 -14626-1 0  9996,2 52843  53.2174 236.6215 0001221  77.8707  95.8287 15.60571771  5850,6764.141,92.274,386.832,385.18,0.0
52843.0,STARLINK-4188,PAYLOAD,2022-07-21 22:00:00,15.59769829,0.0001181,53.2176,235.005,74.3279,172.5714,-0.01511,-0.0111656,0.0,0 STARLINK-4188,1 52843U 22062P   22202.91667824 -.01116560  00000-0 -15110-1 0  9996,2 52843  53.2176 235.0050 0001181  74.3279 172.5714 15.59769829  1308,6766.46,92.321,389.124,387.526,0.0
52843.0,STARLINK-4188,PAYLOAD,2022-07-22 06:00:00,15.58968897,0.0001115,53.2177,233.3935,68.9575,250.2394,-0.0156259999999999,-0.01119453,0.0,0 STARLINK-4188,1 52843U 22062P   22203.25001157 -.01119453  00000-0 -15626-1 0  9991,2 52843  53.2177 233.3935 0001115  68.9575 250.2394 15.58968897  5966,6768.776999999999,92.369,391.397,389.887,0.0
52843.0,STARLINK-4188,PAYLOAD,2022-07-22 22:00:00,15.57360912,0.0001151,53.2174,230.1732,68.4394,32.463,-0.016553,-0.01115996,0.0,0 STARLINK-4188,1 52843U 22062P   22203.91667824 -.01115996  00000-0 -16553-1 0  9991,2 52843  53.2174 230.1732 0001151  68.4394  32.4630 15.57360912  6065,6773.435,92.464,396.08,394.521,0.0
52843.0,STARLINK-4188,PAYLOAD,2022-07-23 14:00:01,15.55756814,0.0001190999999999,53.2172,226.9636,83.4897,155.3199,-0.0176,-0.01117211,0.0,0 STARLINK-4188,1 52843U 22062P   22204.58335648 -.01117211  00000-0 -17600-1 0  9997,2 52843  53.2172 226.9636 0001191  83.4897 155.3199 15.55756814  1303,6778.090999999999,92.559,400.763,399.148,0.0
52843.0,STARLINK-4188,PAYLOAD,2022-07-23 16:00:00,15.55556975,0.0001017,53.2174,226.5622,83.1703,262.5339,-0.017766,-0.0111913,0.0,0 STARLINK-4188,1 52843U 22062P   22204.66667824 -.01119130  00000-0 -17766-1 0  9995,2 52843  53.2174 226.5622 0001017  83.1703 262.5339 15.55556975  6180,6778.670999999999,92.571,401.225,399.847,0.0
52843.0,STARLINK-4188,PAYLOAD,2022-07-23 22:00:00,15.5495141,0.0001100999999999,53.2175,225.3588,70.9667,235.2555,-0.018073,-0.01113754,0.0,0 STARLINK-4188,1 52843U 22062P   22204.91667824 -.01113754  00000-0 -18073-1 0  9991,2 52843  53.2175 225.3588 0001101  70.9667 235.2555 15.54951410  1304,6780.431,92.607,403.042,401.549,0.0
52843.0,STARLINK-4188,PAYLOAD,2022-07-24 14:00:01,15.53347853,0.0001193,53.2172,222.1607,60.9153,17.3603,-0.019212,-0.01115904,0.0,0 STARLINK-4188,1 52843U 22062P   22205.58334491 -.01115904  00000-0 -19212-1 0  9991,2 52843  53.2172 222.1607 0001193  60.9153  17.3603 15.53347853  6327,6785.096,92.703,407.771,406.152,0.0
52843.0,STARLINK-4188,PAYLOAD,2022-07-24 22:00:00,15.52544321,0.0001266,53.2174,220.5619,67.5095,75.3483,-0.019783,-0.0111591,0.0,0 STARLINK-4188,1 52843U 22062P   22205.91667824 -.01115910  00000-0 -19783-1 0  9997,2 52843  53.2174 220.5619 0001266  67.5095  75.3483 15.52544321  1304,6787.437,92.751,410.162,408.443,0.0
52843.0,STARLINK-4188,PAYLOAD,2022-07-25 06:00:00,15.517394400000002,0.0001339,53.2176,218.9682,71.0611,135.4122,-0.02029,-0.01112031,0.0,0 STARLINK-4188,1 52843U 22062P   22206.25001157 -.01112031  00000-0 -20290-1 0  9992,2 52843  53.2176 218.9682 0001339  71.0611 135.4122 15.51739440  6436,6789.784000000002,92.799,412.5580000000001,410.74,0.0
52843.0,STARLINK-4188,PAYLOAD,2022-07-25 14:00:01,15.50861186,0.0001299,53.2171,217.3743,70.3817,198.7574,-0.017253,-0.00931723,0.0,0 STARLINK-4188,1 52843U 22062P   22206.58334491 -.00931723  00000-0 -17253-1 0  9999,2 52843  53.2171 217.3743 0001299  70.3817 198.7574 15.50861186  1303,6792.347,92.852,415.095,413.33,0.0
52843.0,STARLINK-4188,PAYLOAD,2022-07-25 22:00:00,15.50084138,0.0001213,53.2172,215.7793,81.4993,249.3277,-0.0052767,-0.00291118,0.0,0 STARLINK-4188,1 52843U 22062P   22206.91667824 -.00291118  00000-0 -52767-2 0  9992,2 52843  53.2172 215.7793 0001213  81.4993 249.3277 15.50084138  6532,6794.6169999999975,92.898,417.306,415.658,0.0
52843.0,STARLINK-4188,PAYLOAD,2022-07-26 06:00:00,15.49886005,0.0001320999999999,53.2174,214.1879,66.0098,325.8369,-1.4074e-05,-1.25e-05,0.0,0 STARLINK-4188,1 52843U 22062P   22207.25001157 -.00001250  00000-0 -14074-4 0  9998,2 52843  53.2174 214.1879 0001321  66.0098 325.8369 15.49886005  6585,6795.196,92.91,417.959,416.164,0.0
52843.0,STARLINK-4188,PAYLOAD,2022-07-26 14:00:01,15.499124599999998,0.0001355,53.215,212.5839,59.0862,33.5886,-4.492100000000001e-05,-3.003e-05,0.0,0 STARLINK-4188,1 52843U 22062P   22207.58334491 -.00003003  00000-0 -44921-4 0  9996,2 52843  53.2150 212.5839 0001355  59.0862  33.5886 15.49912460  1302,6795.119000000002,92.908,417.905,416.06300000000016,0.0
52843.0,STARLINK-4188,PAYLOAD,2022-07-26 22:00:00,15.49957826,0.0001384,53.2164,210.9963,68.9013,84.7101,-0.0011267999999999,-0.00064047,0.0,0 STARLINK-4188,1 52843U 22062P   22207.91667824 -.00064047  00000-0 -11268-2 0  9993,2 52843  53.2164 210.9963 0001384  68.9013  84.7101 15.49957826  1309,6794.986,92.906,417.792,415.911,0.0
